OBJECT_NAME,OBJECT_ID,EPOCH,MEAN_MOTION,ECCENTRICITY,INCLINATION,RA_OF_ASC_NODE,ARG_OF_PERICENTER,MEAN_ANOMALY,EPHEMERIS_TYPE,CLASSIFICATION_TYPE,NORAD_CAT_ID,ELEMENT_SET_NO,REV_AT_EPOCH,BSTAR,MEAN_MOTION_DOT,MEAN_MOTION_DDOT
STARLINK-35759,2026-117J,2026-06-17T16:11:41.213184,15.82057442,.00007879,53.1569,241.0219,93.2044,266.9069,0,U,69246,999,305,.93579314E-3,.198956E-2,0
STARLINK-37238,2026-117K,2026-06-18T16:20:50.313696,15.82100392,.0001715,53.1566,235.9170,157.5395,202.5704,0,U,69247,999,321,.56157E-3,.118232E-2,0
STARLINK-37412,2026-117L,2026-06-17T16:00:26.220960,15.82046207,.00009417,53.1569,240.9688,105.8871,254.2256,0,U,69248,999,305,.68183075E-3,.143764E-2,0
STARLINK-37398,2026-117M,2026-06-18T16:23:43.232064,15.81081460,.0001352,53.1570,235.9299,159.6878,200.4199,0,U,69249,999,321,.1072E-2,.218401E-2,0
STARLINK-37499,2026-117N,2026-06-18T16:13:30.629280,15.82065478,.0001514,53.1562,235.8812,143.3754,216.7373,0,U,69250,999,321,.101E-2,.215272E-2,0
STARLINK-37489,2026-117P,2026-06-17T15:55:25.752000,15.82067811,.00007946,53.1571,240.9461,102.7922,257.3191,0,U,69251,999,305,.97205254E-3,.206986E-2,0
STARLINK-37434,2026-117Q,2026-06-18T11:33:47.352384,15.81991877,.0001189,53.1566,236.8020,78.2122,281.9034,0,U,69252,999,318,.15431E-2,.332686E-2,0
STARLINK-37368,2026-117R,2026-06-18T15:56:59.570304,15.82070057,.0001214,53.1568,235.8046,60.3984,299.7160,0,U,69253,999,321,.14891E-2,.321778E-2,0
STARLINK-37517,2026-117S,2026-06-18T12:53:08.771712,15.82052229,.0000573,53.1564,236.4298,265.6130,94.4827,0,U,69254,999,319,.13868E-2,.298563E-2,0
STARLINK-37378,2026-117T,2026-06-18T11:21:42.152256,15.81988256,.0002332,53.1568,236.7448,301.5590,58.5205,0,U,69255,999,318,.9942E-3,.211044E-2,0
STARLINK-37396,2026-117U,2026-06-18T12:49:08.018112,15.82175115,.0003181,53.1561,236.4093,269.7331,90.3327,0,U,69256,999,319,.13689E-2,.296336E-2,0
STARLINK-37508,2026-117V,2026-06-18T15:55:41.151072,15.80937367,.0000963,53.1569,235.7957,66.4376,293.6747,0,U,69257,999,321,.97804E-3,.197395E-2,0
STARLINK-37276,2026-117W,2026-06-18T08:00:01.999008,15.80901734,.0001254,53.1573,237.1329,110.4662,322.1664,0,U,69258,999,435,-.27824E-3,-.55338E-3,0
STARLINK-37518,2026-117X,2026-06-18T12:16:34.788000,15.81045726,.0001957,53.1566,236.2552,6.0632,354.0414,0,U,69259,999,319,.12214E-2,.249447E-2,0
STARLINK-37478,2026-117Y,2026-06-18T12:16:54.088896,15.81059198,.0001815,53.1571,236.2570,341.6553,18.4404,0,U,69260,999,319,.13233E-2,.27116E-2,0
STARLINK-37506,2026-117Z,2026-06-18T18:00:02.000160,15.80874166,.0001162,53.1567,235.0571,63.8786,215.9346,0,U,69261,999,443,.131E-3,.25232E-3,0
STARLINK-37503,2026-117AA,2026-06-18T13:46:51.891744,15.80932098,.0001786,53.1570,235.9337,31.7792,328.3338,0,U,69262,999,320,.12388E-2,.251751E-2,0
STARLINK-37502,2026-117AB,2026-06-18T12:15:05.071968,15.80902489,.0001049,53.1572,236.2469,30.5534,329.5550,0,U,69263,999,319,.10701E-2,.216159E-2,0
STARLINK-37486,2026-117AC,2026-06-18T12:13:19.740000,15.81024711,.0001312,53.1569,236.2391,350.0645,10.0352,0,U,69264,999,319,.10813E-2,.219764E-2,0
STARLINK-37435,2026-117AD,2026-06-18T12:15:28.249632,15.80923316,.000126,53.1570,236.2476,18.7065,341.4004,0,U,69265,999,319,.12247E-2,.248678E-2,0
STARLINK-37464,2026-117AE,2026-06-18T10:36:44.490240,15.81973336,.0001829,53.1571,236.5279,39.5248,320.5909,0,U,69266,999,318,.12498E-2,.267033E-2,0
KUIPER-00282,2026-118A,2026-06-18T15:43:35.309856,15.34213860,.0012096,51.8600,46.5005,187.1324,172.9491,0,U,69267,999,420,.46296E-3,.15248E-3,0
KUIPER-00383,2026-118B,2026-06-18T15:39:04.982400,15.34292173,.001118,51.8600,46.4809,189.7780,170.2989,0,U,69268,999,420,.14024E-2,.4727E-3,0
KUIPER-00527,2026-118C,2026-06-18T15:31:43.690080,15.34768537,.0010074,51.8626,46.4519,179.1243,180.9762,0,U,69269,999,420,.40736E-3,.13601E-3,0
KUIPER-00562,2026-118D,2026-06-18T14:38:40.778880,15.38665195,.0001881,51.8721,46.2156,128.5251,231.5905,0,U,69270,999,420,.47465E-3,.18066E-3,0
KUIPER-00570,2026-118E,2026-06-18T15:35:15.618912,15.34636501,.0011581,51.8587,46.4619,190.0741,170.0014,0,U,69271,999,420,.47094E-3,.15729E-3,0
KUIPER-00572,2026-118F,2026-06-18T15:08:35.192832,15.37046078,.0007176,51.8675,46.3549,175.5361,184.5691,0,U,69272,999,420,.45701E-3,.16481E-3,0
KUIPER-00581,2026-118G,2026-06-18T15:14:45.129120,15.36675964,.0008806,51.8659,46.3804,179.5693,180.5302,0,U,69273,999,429,.43743E-3,.15572E-3,0
KUIPER-00584,2026-118H,2026-06-18T15:39:20.498112,15.33128289,.0011467,51.8615,46.4833,163.7002,196.4354,0,U,69274,999,420,-.21509E-1,-.652156E-2,0
KUIPER-00587,2026-118J,2026-06-18T15:13:45.424128,15.36723628,.0008137,51.8631,46.3730,182.6870,177.4074,0,U,69275,999,420,.46828E-3,.16724E-3,0
